{"type": "FeatureCollection", "features": [ {"type": "Feature", "properties": {"norad_id": 41836, "name": "HIMAWARI-9", "group": "weather", "lat": -0.024996638597265305, "lon": -168.73135530740979, "alt_km": 35786.99279702637, "timestamp": "2025-12-16T21:38:56.811827+00:00", "meta": {"OBJECT_NAME": "HIMAWARI-9", "OBJECT_ID": "2016-064A", "EPOCH": "2025-12-16T01:06:14.705856", "MEAN_MOTION": 1.00272556, "ECCENTRICITY": 8.802e-05, "INCLINATION": 0.019, "RA_OF_ASC_NODE": 273.5388, "ARG_OF_PERICENTER": 24.1192, "MEAN_ANOMALY": 304.6111, "EPHEMERIS_TYPE": 0, "CLASSIFICATION_TYPE": "U", "NORAD_CAT_ID": 41836, "ELEMENT_SET_NO": 999, "REV_AT_EPOCH": 3337, "BSTAR": 0, "MEAN_MOTION_DOT": -2.52e-06, "MEAN_MOTION_DDOT": 0}, "tle": {"line1": "1 41836U 16064A   25350.04600354 -.00000252  00000+0  00000+0 0  9994", "line2": "2 41836   0.0190 273.5388 0000880  24.1192 304.6111  1.00272556 33375"}}, "geometry": {"type": "Point", "coordinates": [-168.73135530740979, -0.024996638597265305]}}, {"type": "Feature", "properties": {"norad_id": 41866, "name": "GOES 16", "group": "weather", "lat": -0.04412309058995175, "lon": -54.14211354191818, "alt_km": 35776.29021101021, "timestamp": "2025-12-16T21:38:56.811839+00:00", "meta": {"OBJECT_NAME": "GOES 16", "OBJECT_ID": "2016-071A", "EPOCH": "2025-12-16T06:31:16.110336", "MEAN_MOTION": 1.00271824, "ECCENTRICITY": 0.00030705, "INCLINATION": 0.0719, "RA_OF_ASC_NODE": 102.8838, "ARG_OF_PERICENTER": 161.8169, "MEAN_ANOMALY": 173.6047, "EPHEMERIS_TYPE": 0, "CLASSIFICATION_TYPE": "U", "NORAD_CAT_ID": 41866, "ELEMENT_SET_NO": 999, "REV_AT_EPOCH": 3326, "BSTAR": 0, "MEAN_MOTION_DOT": -6.8e-07, "MEAN_MOTION_DDOT": 0}, "tle": {"line1": "1 41866U 16071A   25350.27171424 -.00000068  00000+0  00000+0 0  9996", "line2": "2 41866   0.0719 102.8838 0003070 161.8169 173.6047  1.00271824 33263"}}, "geometry": {"type": "Point", "coordinates": [-54.14211354191818, -0.04412309058995175]}}, {"type": "Feature", "properties": {"norad_id": 41882, "name": "FENGYUN 4A", "group": "weather", "lat": 1.8538251376861914, "lon": 174.2626589789406, "alt_km": 35775.19560389052, "timestamp": "2025-12-16T21:38:56.811858+00:00", "meta": {"OBJECT_NAME": "FENGYUN 4A", "OBJECT_ID": "2016-077A", "EPOCH": "2025-12-16T07:23:13.239168", "MEAN_MOTION": 1.00268195, "ECCENTRICITY": 0.00045882, "INCLINATION": 1.8583, "RA_OF_ASC_NODE": 82.3575, "ARG_OF_PERICENTER": 144.3601, "MEAN_ANOMALY": 93.0852, "EPHEMERIS_TYPE": 0, "CLASSIFICATION_TYPE": "U", "NORAD_CAT_ID": 41882, "ELEMENT_SET_NO": 999, "REV_AT_EPOCH": 3309, "BSTAR": 0, "MEAN_MOTION_DOT": -3.35e-06, "MEAN_MOTION_DDOT": 0}, "tle": {"line1": "1 41882U 16077A   25350.30779212 -.00000335  00000+0  00000+0 0  9990", "line2": "2 41882   1.8583  82.3575 0004588 144.3601  93.0852  1.00268195 33098"}}, "geometry": {"type": "Point", "coordinates": [174.2626589789406, 1.8538251376861914]}}, {"type": "Feature", "properties": {"norad_id": 41884, "name": "CYGFM05", "group": "weather", "lat": -7.3544315323206515, "lon": -149.41534657665113, "alt_km": 416.7049923758932, "timestamp": "2025-12-16T21:38:56.811870+00:00", "meta": {"OBJECT_NAME": "CYGFM05", "OBJECT_ID": "2016-078A", "EPOCH": "2025-12-16T06:53:15.592128", "MEAN_MOTION": 15.47769526, "ECCENTRICITY": 0.00105116, "INCLINATION": 34.9606, "RA_OF_ASC_NODE": 23.9576, "ARG_OF_PERICENTER": 215.4173, "MEAN_ANOMALY": 144.5851, "EPHEMERIS_TYPE": 0, "CLASSIFICATION_TYPE": "U", "NORAD_CAT_ID": 41884, "ELEMENT_SET_NO": 999, "REV_AT_EPOCH": 50031, "BSTAR": 0.00028939562, "MEAN_MOTION_DOT": 0.00015482, "MEAN_MOTION_DDOT": 0}, "tle": {"line1": "1 41884U 16078A   25350.28698602  .00015482  00000+0  28940-3 0  9998", "line2": "2 41884  34.9606  23.9576 0010511 215.4173 144.5851 15.47769526500317"}}, "geometry": {"type": "Point", "coordinates": [-149.41534657665113, -7.3544315323206515]}}, {"type": "Feature", "properties": {"norad_id": 41885, "name": "CYGFM04", "group": "weather", "lat": 31.70694031184315, "lon": 112.34102034454156, "alt_km": 413.7664996456224, "timestamp": "2025-12-16T21:38:56.811881+00:00", "meta": {"OBJECT_NAME": "CYGFM04", "OBJECT_ID": "2016-078B", "EPOCH": "2025-12-16T07:15:18.126432", "MEAN_MOTION": 15.50510033, "ECCENTRICITY": 0.0009716, "INCLINATION": 34.9357, "RA_OF_ASC_NODE": 358.5314, "ARG_OF_PERICENTER": 241.0706, "MEAN_ANOMALY": 118.9042, "EPHEMERIS_TYPE": 0, "CLASSIFICATION_TYPE": "U", "NORAD_CAT_ID": 41885, "ELEMENT_SET_NO": 999, "REV_AT_EPOCH": 50049, "BSTAR": 0.00030787238, "MEAN_MOTION_DOT": 0.00018152, "MEAN_MOTION_DDOT": 0}, "tle": {"line1": "1 41885U 16078B   25350.30229313  .00018152  00000+0  30787-3 0  9990", "line2": "2 41885  34.9357 358.5314 0009716 241.0706 118.9042 15.50510033500497"}}, "geometry": {"type": "Point", "coordinates": [112.34102034454156, 31.70694031184315]}}, {"type": "Feature", "properties": {"norad_id": 41886, "name": "CYGFM02", "group": "weather", "lat": 18.074287956567897, "lon": 145.00321564773552, "alt_km": 408.6594472841434, "timestamp": "2025-12-16T21:38:56.811892+00:00", "meta": {"OBJECT_NAME": "CYGFM02", "OBJECT_ID": "2016-078C", "EPOCH": "2025-12-16T07:07:21.489600", "MEAN_MOTION": 15.51900134, "ECCENTRICITY": 0.0011388, "INCLINATION": 34.9445, "RA_OF_ASC_NODE": 356.8474, "ARG_OF_PERICENTER": 241.1021, "MEAN_ANOMALY": 118.8559, "EPHEMERIS_TYPE": 0, "CLASSIFICATION_TYPE": "U", "NORAD_CAT_ID": 41886, "ELEMENT_SET_NO": 999, "REV_AT_EPOCH": 50062, "BSTAR": 0.00031639696, "MEAN_MOTION_DOT": 0.00019629, "MEAN_MOTION_DDOT": 0}, "tle": {"line1": "1 41886U 16078C   25350.29677650  .00019629  00000+0  31640-3 0  9999", "line2": "2 41886  34.9445 356.8474 0011388 241.1021 118.8559 15.51900134500626"}}, "geometry": {"type": "Point", "coordinates": [145.00321564773552, 18.074287956567897]}}, {"type": "Feature", "properties": {"norad_id": 41887, "name": "CYGFM01", "group": "weather", "lat": -31.529803686554654, "lon": -96.26072574162912, "alt_km": 417.6060861992328, "timestamp": "2025-12-16T21:38:56.811902+00:00", "meta": {"OBJECT_NAME": "CYGFM01", "OBJECT_ID": "2016-078D", "EPOCH": "2025-12-16T06:39:55.990368", "MEAN_MOTION": 15.48353139, "ECCENTRICITY": 0.00101119, "INCLINATION": 34.9438, "RA_OF_ASC_NODE": 26.3425, "ARG_OF_PERICENTER": 207.55, "MEAN_ANOMALY": 152.4686, "EPHEMERIS_TYPE": 0, "CLASSIFICATION_TYPE": "U", "NORAD_CAT_ID": 41887, "ELEMENT_SET_NO": 999, "REV_AT_EPOCH": 50025, "BSTAR": 0.00029112986, "MEAN_MOTION_DOT": 0.00015896, "MEAN_MOTION_DDOT": 0}, "tle": {"line1": "1 41887U 16078D   25350.27773137  .00015896  00000+0  29113-3 0  9999", "line2": "2 41887  34.9438  26.3425 0010111 207.5500 152.4686 15.48353139500252"}}, "geometry": {"type": "Point", "coordinates": [-96.26072574162912, -31.529803686554654]}}, {"type": "Feature", "properties": {"norad_id": 41888, "name": "CYGFM08", "group": "weather", "lat": -24.936174622377667, "lon": -36.54167044595477, "alt_km": 417.49444411941477, "timestamp": "2025-12-16T21:38:56.811914+00:00", "meta": {"OBJECT_NAME": "CYGFM08", "OBJECT_ID": "2016-078E", "EPOCH": "2025-12-16T07:56:14.072352", "MEAN_MOTION": 15.49568534, "ECCENTRICITY": 0.00118639, "INCLINATION": 34.9468, "RA_OF_ASC_NODE": 8.9463, "ARG_OF_PERICENTER": 230.8164, "MEAN_ANOMALY": 129.1505, "EPHEMERIS_TYPE": 0, "CLASSIFICATION_TYPE": "U", "NORAD_CAT_ID": 41888, "ELEMENT_SET_NO": 999, "REV_AT_EPOCH": 50049, "BSTAR": 0.00030314604, "MEAN_MOTION_DOT": 0.00017297, "MEAN_MOTION_DDOT": 0}, "tle": {"line1": "1 41888U 16078E   25350.33071843  .00017297  00000+0  30315-3 0  9995", "line2": "2 41888  34.9468   8.9463 0011863 230.8164 129.1505 15.49568534500499"}}, "geometry": {"type": "Point", "coordinates": [-36.54167044595477, -24.936174622377667]}}, {"type": "Feature", "properties": {"norad_id": 41890, "name": "CYGFM07", "group": "weather", "lat": -26.406551993552384, "lon": -51.1573197608584, "alt_km": 414.0570228856386, "timestamp": "2025-12-16T21:38:56.811925+00:00", "meta": {"OBJECT_NAME": "CYGFM07", "OBJECT_ID": "2016-078G", "EPOCH": "2025-12-16T07:57:26.976672", "MEAN_MOTION": 15.50154062, "ECCENTRICITY": 0.00101412, "INCLINATION": 34.9485, "RA_OF_ASC_NODE": 357.9009, "ARG_OF_PERICENTER": 246.4808, "MEAN_ANOMALY": 113.4849, "EPHEMERIS_TYPE": 0, "CLASSIFICATION_TYPE": "U", "NORAD_CAT_ID": 41890, "ELEMENT_SET_NO": 999, "REV_AT_EPOCH": 50051, "BSTAR": 0.0003097279, "MEAN_MOTION_DOT": 0.00018033, "MEAN_MOTION_DDOT": 0}, "tle": {"line1": "1 41890U 16078G   25350.33156223  .00018033  00000+0  30973-3 0  9993", "line2": "2 41890  34.9485 357.9009 0010141 246.4808 113.4849 15.50154062500519"}}, "geometry": {"type": "Point", "coordinates": [-51.1573197608584, -26.406551993552384]}}, {"type": "Feature", "properties": {"norad_id": 41891, "name": "CYGFM03", "group": "weather", "lat": 20.574650095609638, "lon": 143.56154575275764, "alt_km": 413.2649583597695, "timestamp": "2025-12-16T21:38:56.811935+00:00", "meta": {"OBJECT_NAME": "CYGFM03", "OBJECT_ID": "2016-078H", "EPOCH": "2025-12-16T07:07:37.670592", "MEAN_MOTION": 15.50050441, "ECCENTRICITY": 0.00095749, "INCLINATION": 34.9438, "RA_OF_ASC_NODE": 0.0489, "ARG_OF_PERICENTER": 234.2641, "MEAN_ANOMALY": 125.719, "EPHEMERIS_TYPE": 0, "CLASSIFICATION_TYPE": "U", "NORAD_CAT_ID": 41891, "ELEMENT_SET_NO": 999, "REV_AT_EPOCH": 50048, "BSTAR": 0.00030609636, "MEAN_MOTION_DOT": 0.00017751, "MEAN_MOTION_DDOT": 0}, "tle": {"line1": "1 41891U 16078H   25350.29696378  .00017751  00000+0  30610-3 0  9993", "line2": "2 41891  34.9438   0.0489 0009574 234.2641 125.7190 15.50050441500481"}}, "geometry": {"type": "Point", "coordinates": [143.56154575275764, 20.574650095609638]}}]}